#dP2021 11 25  0  0  0.00000000      97 __u+U IGS14 FIT  IAC
## 2185 345600.00000000   900.00000000 59543 0.0000000000000
+  123   C01C02C03C04C05C06C07C08C09C10C11C12C13C14C16C19C20
+        C21C22C23C24C25C26C27C28C29C30C32C33C34C35C36C37C38
+        C39C40C41C42C43C44C45C46C59C60E01E02E03E04E05E07E08
+        E09E11E12E13E14E15E18E19E21E24E25E27E30E31E33E36G01
+        G02G03G04G05G06G07G08G09G10G12G13G14G15G16G17G18G19
+        G20G21G22G23G24G25G26G27G28G29G30G31G32J01J02J03J07
+        R01R02R03R04R05R07R08R09R11R12R13R14R15R16R17R18R19
+        R20R21R22R24  0  0  0  0  0  0  0  0  0  0  0  0  0
++        13 13 13 13 13  9  8  9  8  8  8  8  9  8  9  7  6
++         7  7  6  7  6  7  7  7  7  7  7  7  7  7  7  7  7
++         7  7  7  7  7  7  7  7 14 13  4  4  4  4  4  4  3
++         4  4  4  4  5  4  4  4  4  4  4  4  4  4  4  4  3
++         3  3  3  3  3  3  3  3  3  3  3  3  3  3  4  3  3
++         3  3  3  3  3  3  3  3  4  3  3  4  3  8  8  8  0
++         6  5  6  6  6  5  5  5  7  5  7  6  6  7  5  5  7
++         7  5  7  5  0  0  0  0  0  0  0  0  0  0  0  0  0
%c M  cc GPS ccc cccc cccc cccc cccc ccccc ccccc ccccc ccccc
%c cc cc ccc ccc cccc cccc cccc cccc ccccc ccccc ccccc ccccc
%f  1.2500000  1.025000000  0.00000000000  0.000000000000000
%f  0.0000000  0.000000000  0.00000000000  0.000000000000000
%i    0    0    0    0      0      0      0      0         0
%i    0    0    0    0      0      0      0      0         0
/* INFORMATION & ANALYSIS CENTER (IAC)            FINAL DATA
/* S/V CLOCKS ARE ALIGNED TO GNSS TIME                      
/* G:C1WC2W R:C1PC2P E:C1XC5X C:C2IC6I J:C1CC2S             
/* PCV:IGS14_2178 OL/AL:FES2004  NONE     YN ORB:CoN CLK:CoN
*  2021 11 25 19 30  0.00000000
PC01 -34305.809915  24494.540275    296.734606   -410.151029
PC02   4277.743213  41940.932658    -42.638532    127.175528
PC03 -14772.286306  39463.208086    766.510239    241.294318
PC04 -39610.177192  14383.061912    546.004672    239.169342
PC05  21833.339178  36066.912136   -349.273249    313.508428
PC06 -11169.821846  23750.246680 -33058.167302    540.921100
PC07 -14260.971627  39388.651694   4226.004699    195.605963
PC08   2057.460461  32891.975048  26401.489352   -738.135175
PC09  -3599.338589  24186.043351 -34053.591413   -296.685644
PC10  -7270.469932  39643.317879  11822.791940     13.889606
PC11 -13750.204719  12867.757288  20649.524897    711.923768
PC12 -26739.826857   3629.233129   7104.998737    719.781345
PC13   6098.827717  35579.316968  22140.368080    486.580161
PC14 -14322.046319  23918.578489   -162.280804    520.523789
PC16 -17037.961719  22053.055264 -31582.549965   -708.831808
PC19   7536.440819 -25147.620833   9495.879376    930.651477
PC20  18047.515065 -19960.651987  -7428.040261   -791.441101
PC21 -18335.341359   2410.048211  20901.854977   -940.073211
PC22  -7688.980143 -15987.936211  21538.529167   -972.355486
PC23  15140.250315  23227.509720   3217.035994   -963.892512
PC24 -12683.225591  10516.047291 -22533.268208   -957.409587
PC25   3051.025737  24392.491372 -13236.873781   -819.326877
PC26 -19487.097105  -7368.029066 -18556.926303    816.696432
PC27  27731.167171   2397.648694   1892.930071    635.240402
PC28  17525.678564  12819.111285  17540.384608      1.560496
PC29   2480.757033 -15833.571571 -22847.156208    479.185289
PC30  21817.888424  -9890.166184 -14300.881073    487.192494
PC32  18306.765525  -2491.711831 -20908.485958   -959.537636
PC33  -7460.732747  25193.778215  -9389.333690   -967.649585
PC34 -21195.212888  10320.701715  14942.957880   -528.778055
PC35 -17512.334551 -12460.385737 -17817.421759     17.372042
PC36  -2088.438735 -24278.052159  13615.039782   -813.762546
PC37  19437.097383   8927.645922  17953.171827   -898.406239
PC38  -6493.116466  28189.212579  30754.857460    192.093468
PC39 -21526.321085  21792.257747 -29060.997921     34.132368
PC40 -21306.709785  36287.050046    759.582556    220.960412
PC41   7460.813234  16294.316245 -21351.850891   -915.512186
PC42 -18350.949594  19319.517104   8308.823042   -939.304904
PC43  -3285.246630  15887.686545  22703.588601   -958.416422
PC44 -27796.205837  -1603.225287  -2116.878499    477.697843
PC45 -15238.253808 -23108.416577  -3415.379310    610.429531
PC46  11797.540755 -11644.412508  22448.121709    -27.502799
PC59 -32298.102390  27110.163596   -584.446964      0.440961
PC60   7293.519142  41497.802270   1655.502923     -0.414763
PE01 -16471.746432  -3332.692949 -24360.253028   -524.766265
PE02  16485.807072   3190.851092  24381.034856    262.707275
PE03  25929.403763  -3790.560718 -13785.425773   -499.788155
PE04 -23805.322557  17127.766628  -4029.031132   -907.381773
PE05  12846.718474  12015.977613 -23813.101752   -231.211686
PE07   7551.931845 -20622.798543  19845.178984   -610.926259
PE08  23550.673686 -17386.876905   4412.547479   5899.120183
PE09  -7289.657505  20514.429428 -20055.636997   5451.288494
PE11   3548.867289  18868.307470  22524.339971   5015.248951
PE12 -16922.232327   7672.187221  23048.496473   4891.978874
PE13  -3016.674023 -18617.719523 -22803.580524    424.062571
PE14  16906.895465   8796.264228  16417.362448  -1652.862389
PE15  16934.202747  -7589.384058 -23051.120921    778.885937
PE18 -10774.363676 -17322.371680 -23820.009850  -1817.222415
PE19 -25026.760940   1822.295242  15701.303786    436.590785
PE21 -10882.038729 -22369.337922 -16032.233768   -701.656697
PE24  -2160.319795  29381.175125  -3037.157774  -1245.914417
PE25  10769.974368  22561.493087  15866.388796   -554.783385
PE27   1291.206858 -29499.442404   1961.901384   -172.933598
PE30  13213.694118 -18077.230097  19345.630367    -59.305324
PE31 -12589.606600  19242.977371 -18631.896057   -488.540145
PE33 -26830.265611  -7857.924771   9731.719739   -462.147428
PE36  21085.460531  18650.429517   9161.798485   -295.151009
PG01 -22232.398388 -13881.845632   5028.156230    500.945967
PG02  10206.788155  19695.362299  15200.339124   -643.424065
PG03 -13191.012608  -9109.342898  21091.191901    -23.022313
PG04 -22202.713031  -2809.433331  14360.889860   -200.937355
PG05   6728.692031  22170.485771 -13011.837518    -62.290326
PG06  -4866.633386  14557.678787  21733.531232    126.759545
PG07 -20298.817172   -840.888180 -16987.678763    282.940748
PG08 -13438.270605  -9953.017416 -20721.118555    -45.603393
PG09 -25226.906446   7134.332637   4284.336394   -361.376661
PG10  11593.420382 -20137.823600 -12464.295086   -254.272305
PG12  11693.570250  11807.230949  20496.659080   -131.609933
PG13   5053.806823  14317.450721 -21951.545731    220.019588
PG14 -12773.408793  19645.916447 -12448.781361    -44.659232
PG15  15181.956253   9041.555966 -20314.450676   -103.802588
PG16  -1977.868603 -23905.861900 -11127.079338   -430.219598
PG17 -21021.569001  13485.280492   9514.627507    538.805485
PG18  19284.508971   -263.574605 -18310.149107    289.911291
PG19 -14667.501195  15065.772329  15859.701902     83.996513
PG20   1622.676963  26568.968669  -2160.148815    517.943688
PG21 -20828.619223 -16597.347652  -2884.586801    152.047577
PG22 -11666.042412 -17123.102956  16903.476289   -456.226204
PG23  14945.341790  -9464.943148 -19804.611413     28.836102
PG24  22157.169224  15049.475966     84.446923    270.403752
PG25  15297.607017   -808.520504  21407.925241    246.194772
PG26   4877.240329 -25746.648115   3125.343306    158.914207
PG27  -2284.956262 -15080.441401 -21892.348388   -223.568564
PG28  -9506.771817  24316.594175  -4922.168330    455.678588
PG29  25233.619303  -2154.679022   8068.637018   -445.544528
PG30 -13172.980201   9225.012174 -21094.401980   -494.345511
PG31   3399.610078 -16149.164388  20597.896857   -151.959213
PG32  17451.781004 -16033.888479  11919.846915    -26.629848
PJ01 -35829.194567  22181.282006   6241.256698    121.961351
PJ02 -19913.918054  29302.666478 -18194.769783     -0.183204
PJ03 -29393.279947  23881.529393  23701.166890     -7.302087
PJ07      0.000000      0.000000      0.000000 999999.999999
PR01 -10536.584775  20435.247396 -11046.634839     88.602061
PR02   5046.363387  10377.944507 -22721.222056    501.256663
PR03  16411.703137  -4865.318847 -18851.437119     47.074019
PR04  18338.528531 -17134.682276  -4497.733797    115.939227
PR05  10204.037709 -19829.490682  12359.741867     83.095709
PR07 -16755.683143   5487.992256  18485.979569    -39.704567
PR08 -18347.552107  17170.253881   4520.637073    -62.208071
PR09 -11441.892807 -21506.019839  -7667.414710     25.487038
PR11  -7375.802154  10513.108100 -22026.143686     47.940966
PR12   2746.776863  23318.491214  -9970.914399    281.388169
PR13  11000.999887  21994.327146   6769.412892    -64.008642
PR14  12989.773514   7221.861618  20740.198075     71.396029
PR15   7306.575226 -11119.138043  21783.179217     99.982880
PR16  -3939.778852 -23538.537513   8791.663176    -25.652674
PR17  25040.850466   4806.907941  -1312.143954    478.080826
PR18  18915.911286  -3460.018045 -16713.938510     98.401033
PR19   4226.849477  -9578.505368 -23254.842378   -168.342138
PR20 -16464.780088 -11385.989837 -15817.976877    -60.024558
PR21 -24983.340148  -4256.815395   2745.429791   -257.383134
PR22 -18321.543570   3751.925195  17385.225594   -147.465203
PR24  17158.804116  11253.101082  15189.370339     68.477635
EOF
